NORAD_CAT_ID,EPOCH,MEAN_MOTION,ECCENTRICITY,INCLINATION,RA_OF_ASC_NODE,ARG_OF_PERICENTER,MEAN_ANOMALY,APOAPSIS,PERIAPSIS,BSTAR,COUNTRY_CODE,RCS_SIZE,NAME,LINE1,LINE2
60834,2025-08-08T17:40:15.437856,14.04818992,0.0110301,89.0298,311.8976,144.822,216.0309,957.184,797.131,0.0001078,PRC,SMALL,0 CZ-6A DEB,1 60834U 24140HM  25220.73628979  .00000197  00000-0  10780-3 0  9990,2 60834  89.0298 311.8976 0110301 144.8220 216.0309 14.04818992 50621
60836,2025-08-08T16:31:19.266816,14.61243574,0.0109222,88.9991,307.0417,240.9883,118.0351,766.354,611.973,0.00077289,PRC,SMALL,0 CZ-6A DEB,1 60836U 24140HP  25220.68841744  .00004164  00000-0  77289-3 0  9998,2 60836  88.9991 307.0417 0109222 240.9883 118.0351 14.61243574 51788
60837,2025-08-09T05:28:59.861568,14.15601813,0.0066991,89.1852,317.7974,126.93,233.805,888.624,791.911,0.00028794,PRC,SMALL,0 CZ-6A DEB,1 60837U 24140HQ  25221.22847062  .00000590  00000-0  28794-3 0  9995,2 60837  89.1852 317.7974 0066991 126.9300 233.8050 14.15601813 51073
60838,2025-08-08T17:57:19.670976,14.48969961,0.0071357,89.0921,311.923,230.5127,128.9755,779.731,678.302,0.00059354,PRC,SMALL,0 CZ-6A DEB,1 60838U 24140HR  25220.74814434  .00002337  00000-0  59354-3 0  9996,2 60838  89.0921 311.9230 0071357 230.5127 128.9755 14.48969961 52155
60839,2025-08-08T17:51:57.284064,13.73827128,0.0261203,88.9639,311.2353,192.9001,166.5397,1178.215,793.515,0.00028668,PRC,SMALL,0 CZ-6A DEB,1 60839U 24140HS  25220.74441301  .00000356  00000-0  28668-3 0  9999,2 60839  88.9639 311.2353 0261203 192.9001 166.5397 13.73827128 49513
60840,2025-08-08T17:34:23.265408,14.69180932,0.0128607,88.9975,306.4418,218.9534,140.2367,754.249,573.123,0.0009225,PRC,SMALL,0 CZ-6A DEB,1 60840U 24140HT  25220.73221372  .00006182  00000-0  92250-3 0  9995,2 60840  88.9975 306.4418 0128607 218.9534 140.2367 14.69180932 52821
60841,2025-08-08T22:51:12.644352,14.21094932,0.0047584,89.013,310.2189,116.5271,244.081,855.914,787.395,0.00049545,PRC,SMALL,0 CZ-6A DEB,1 60841U 24140HU  25220.95222968  .00001102  00000-0  49545-3 0  9998,2 60841  89.0130 310.2189 0047584 116.5271 244.0810 14.21094932 51243
60842,2025-08-09T04:12:19.603296,14.77565921,0.0159959,88.8965,301.0176,187.8461,172.0258,749.234,524.806,0.00076207,PRC,SMALL,0 CZ-6A DEB,1 60842U 24140HV  25221.17522689  .00006761  00000-0  76207-3 0  9998,2 60842  88.8965 301.0176 0159959 187.8461 172.0258 14.77565921 53209
60843,2025-08-09T05:08:43.708128,14.16198194,0.0066931,89.0245,310.9716,133.8899,226.7844,886.541,789.941,0.00043966,PRC,SMALL,0 CZ-6A DEB,1 60843U 24140HW  25221.21439477  .00000904  00000-0  43966-3 0  9995,2 60843  89.0245 310.9716 0066931 133.8899 226.7844 14.16198194 51119
60844,2025-08-08T11:11:16.461600,14.35798472,0.0094094,88.6073,291.4596,197.8033,161.9863,839.699,705.134,0.00010841,PRC,SMALL,0 CZ-6A DEB,1 60844U 24140HX  25220.46616275  .00000346  00000-0  10841-3 0  9991,2 60844  88.6073 291.4596 0094094 197.8033 161.9863 14.35798472 51773
60845,2025-08-08T18:31:05.763936,14.5552303,0.0122141,89.0453,309.3164,243.5711,115.2924,794.215,621.122,0.00011307,PRC,SMALL,0 CZ-6A DEB,1 60845U 24140HY  25220.77159449  .00000561  00000-0  11307-3 0  9998,2 60845  89.0453 309.3164 0122141 243.5711 115.2924 14.55523030 52508
60847,2025-08-08T16:46:12.853632,14.32874337,0.0030558,88.9705,307.769,166.8941,193.3058,804.022,760.261,0.0011174,PRC,SMALL,0 CZ-6A DEB,1 60847U 24140JA  25220.69875988  .00003079  00000-0  11174-2 0  9992,2 60847  88.9705 307.7690 0030558 166.8941 193.3058 14.32874337 51481
60848,2025-08-08T22:23:47.294592,14.62402706,0.0151142,88.7289,294.8774,163.5545,197.0653,792.189,578.668,0.0024728,PRC,SMALL,0 CZ-6A DEB,1 60848U 24140JB  25220.93318628  .00014777  00000-0  24728-2 0  9999,2 60848  88.7289 294.8774 0151142 163.5545 197.0653 14.62402706 51227
60849,2025-08-08T17:22:53.035680,14.6308309,0.0151607,89.1422,313.2523,240.4239,118.1795,790.294,576.183,0.0003243,PRC,MEDIUM,0 CZ-6A DEB,1 60849U 24140JC  25220.72422495  .00001984  00000-0  32430-3 0  9991,2 60849  89.1422 313.2523 0151607 240.4239 118.1795 14.63083090 52629
60850,2025-08-08T16:24:49.769568,14.23726538,0.0027488,88.8667,303.7114,94.8524,265.5808,832.546,793.013,0.00012669,PRC,SMALL,0 CZ-6A DEB,1 60850U 24140JD  25220.68390937  .00000305  00000-0  12669-3 0  9991,2 60850  88.8667 303.7114 0027488  94.8524 265.5808 14.23726538 51094
60851,2025-08-09T12:51:52.102080,15.02952098,0.006856,89.0106,306.4139,176.0948,184.0838,605.354,510.248,0.0065177,PRC,MEDIUM,0 CZ-6A DEB,1 60851U 24140JE  25221.53601970  .00093167  00000-0  65177-2 0  9998,2 60851  89.0106 306.4139 0068560 176.0948 184.0838 15.02952098 53272
60852,2025-08-09T04:08:07.606464,13.60165235,0.0388551,88.3893,289.7692,194.7607,164.1946,1323.135,747.052,0.00078601,PRC,SMALL,0 CZ-6A DEB,1 60852U 24140JF  25221.17231026  .00000983  00000-0  78601-3 0  9991,2 60852  88.3893 289.7692 0388551 194.7607 164.1946 13.60165235 48880
60854,2025-08-08T22:58:53.438880,14.6328183,0.010932,88.9558,304.9819,243.1464,115.8542,759.787,605.411,0.0011441,PRC,SMALL,0 CZ-6A DEB,1 60854U 24140JH  25220.95756295  .00006451  00000-0  11441-2 0  9992,2 60854  88.9558 304.9819 0109320 243.1464 115.8542 14.63281830 52426
60855,2025-08-09T00:28:31.944288,14.13725407,0.007583,89.0261,311.1949,123.0665,237.7833,901.439,791.868,0.00041683,PRC,MEDIUM,0 CZ-6A DEB,1 60855U 24140JJ  25221.01981417  .00000824  00000-0  41683-3 0  9997,2 60855  89.0261 311.1949 0075830 123.0665 237.7833 14.13725407 50806
60856,2025-08-08T17:53:10.019904,13.84591921,0.0207464,89.1615,318.5228,186.7979,173.037,1099.63,795.663,0.00032387,PRC,SMALL,0 CZ-6A DEB,1 60856U 24140JK  25220.74525486  .00000443  00000-0  32387-3 0  9995,2 60856  89.1615 318.5228 0207464 186.7979 173.0370 13.84591921 49733
60857,2025-08-08T18:25:09.832224,14.43375376,0.0059602,88.9781,307.1195,252.3355,107.1334,789.839,704.901,0.00017984,PRC,SMALL,0 CZ-6A DEB,1 60857U 24140JL  25220.76747491  .00000635  00000-0  17984-3 0  9999,2 60857  88.9781 307.1195 0059602 252.3355 107.1334 14.43375376 51662
60858,2025-08-09T00:24:01.934784,14.21930054,0.0036951,88.8683,303.8705,96.3001,264.24,845.428,792.241,0.00015179,PRC,SMALL,0 CZ-6A DEB,1 60858U 24140JM  25221.01668906  .00000352  00000-0  15179-3 0  9992,2 60858  88.8683 303.8705 0036951  96.3001 264.2400 14.21930054 50955
60859,2025-08-08T22:25:16.868928,14.3966081,0.0061918,88.5619,289.1184,315.9941,43.6339,803.817,715.426,0.0002891,PRC,SMALL,0 CZ-6A DEB,1 60859U 24140JN  25220.93422302  .00000940  00000-0  28910-3 0  9991,2 60859  88.5619 289.1184 0061918 315.9941  43.6339 14.39660810 51548
60860,2025-08-08T23:43:53.443200,14.14295552,0.006965,89.0604,312.5649,121.5995,239.2015,895.019,794.404,0.00011535,PRC,SMALL,0 CZ-6A DEB,1 60860U 24140JP  25220.98881300  .00000240  00000-0  11535-3 0  9993,2 60860  89.0604 312.5649 0069650 121.5995 239.2015 14.14295552 50686
60861,2025-08-08T18:37:40.946304,14.95511487,0.0114767,89.0839,309.6471,177.5343,182.6481,660.653,500.922,0.0033869,PRC,SMALL,0 CZ-6A DEB,1 60861U 24140JQ  25220.77616836  .00043024  00000-0  33869-2 0  9991,2 60861  89.0839 309.6471 0114767 177.5343 182.6481 14.95511487 53100
60862,2025-08-08T23:07:08.673312,15.39351504,0.0033975,88.939,302.7401,197.9611,162.0447,471.22,424.836,0.011664,PRC,SMALL,0 CZ-6A DEB,1 60862U 24140JR  25220.96329483  .00492616  00000-0  11664-1 0  9995,2 60862  88.9390 302.7401 0033975 197.9611 162.0447 15.39351504 53388
60863,2025-08-08T16:11:04.688448,14.23771283,0.0028452,89.0097,309.8357,132.7848,227.5744,833.088,792.17,0.00013685,PRC,SMALL,0 CZ-6A DEB,1 60863U 24140JS  25220.67435982  .00000329  00000-0  13685-3 0  9999,2 60863  89.0097 309.8357 0028452 132.7848 227.5744 14.23771283 50988
60864,2025-08-08T18:46:27.914592,14.33655276,0.0015119,89.4299,327.5342,317.1931,42.8088,790.362,768.719,0.00060978,PRC,SMALL,0 CZ-6A DEB,1 60864U 24140JT  25220.78226753  .00001705  00000-0  60978-3 0  9992,2 60864  89.4299 327.5342 0015119 317.1931  42.8088 14.33655276 50709
60865,2025-08-08T17:32:39.638112,14.47671809,0.0089078,88.988,307.2607,215.4943,144.0317,796.612,669.918,0.00020548,PRC,SMALL,0 CZ-6A DEB,1 60865U 24140JU  25220.73101433  .00000812  00000-0  20548-3 0  9992,2 60865  88.9880 307.2607 0089078 215.4943 144.0317 14.47671809 51848
60866,2025-08-08T18:53:33.569376,14.55438323,0.0112666,88.9473,304.9306,267.5901,91.2406,787.78,628.108,0.00040337,PRC,SMALL,0 CZ-6A DEB,1 60866U 24140JV  25220.78719409  .00001925  00000-0  40337-3 0  9990,2 60866  88.9473 304.9306 0112666 267.5901  91.2406 14.55438323 52078
60868,2025-08-09T04:46:46.469280,15.43752347,0.0029016,88.9962,306.5929,214.8734,145.0625,454.818,415.279,0.016137,PRC,SMALL,0 CZ-6A DEB,1 60868U 24140JX  25221.19914895  .00803546  00000-0  16137-1 0  9992,2 60868  88.9962 306.5929 0029016 214.8734 145.0625 15.43752347 53320
60870,2025-08-08T17:59:57.560928,14.13175914,0.0085121,88.7433,299.351,155.8516,204.6698,910.04,787.012,0.00029986,PRC,MEDIUM,0 CZ-6A DEB,1 60870U 24140JZ  25220.74997177  .00000596  00000-0  29986-3 0  9991,2 60870  88.7433 299.3510 0085121 155.8516 204.6698 14.13175914 50627
60871,2025-08-08T19:42:37.800576,14.54959159,0.0098822,89.0725,310.6816,199.9959,159.7368,779.541,639.458,0.00099377,PRC,SMALL,0 CZ-6A DEB,1 60871U 24140KA  25220.82127084  .00004581  00000-0  99377-3 0  9992,2 60871  89.0725 310.6816 0098822 199.9959 159.7368 14.54959159 50758
60872,2025-08-09T04:39:15.878592,14.24804307,0.0031742,88.9217,305.9767,77.7097,282.7646,831.967,786.339,0.00056291,PRC,SMALL,0 CZ-6A DEB,1 60872U 24140KB  25221.19393378  .00001333  00000-0  56291-3 0  9995,2 60872  88.9217 305.9767 0031742  77.7097 282.7646 14.24804307 51106
60873,2025-08-09T05:08:33.872352,14.14370576,0.007597,89.1262,315.394,124.1193,236.7231,899.326,789.586,0.0002224,PRC,SMALL,0 CZ-6A DEB,1 60873U 24140KC  25221.21428093  .00000452  00000-0  22240-3 0  9990,2 60873  89.1262 315.3940 0075970 124.1193 236.7231 14.14370576 50735
